[{"OBJECT_NAME":"STARLINK-5628","OBJECT_ID":"2023-015T","EPOCH":"2026-03-09T09:32:08.880000","MEAN_MOTION":15.02533041,"ECCENTRICITY":0.00014187,"INCLINATION":43.0067,"RA_OF_ASC_NODE":327.264,"ARG_OF_PERICENTER":267.1501,"MEAN_ANOMALY":92.9179,"EPHEMERIS_TYPE":0,"CLASSIFICATION_TYPE":"U","NORAD_CAT_ID":55466,"ELEMENT_SET_NO":999,"REV_AT_EPOCH":17071,"BSTAR":-1.7660136e-5,"MEAN_MOTION_DOT":-4.42e-6,"MEAN_MOTION_DDOT":0},{"OBJECT_NAME":"QPS-SAR-8 (AMATERU-IV)","OBJECT_ID":"2024-149CC","EPOCH":"2026-03-09T16:54:01.213344","MEAN_MOTION":15.03026697,"ECCENTRICITY":0.0003873,"INCLINATION":97.6699,"RA_OF_ASC_NODE":148.7511,"ARG_OF_PERICENTER":93.15,"MEAN_ANOMALY":267.0168,"EPHEMERIS_TYPE":0,"CLASSIFICATION_TYPE":"U","NORAD_CAT_ID":60542,"ELEMENT_SET_NO":999,"REV_AT_EPOCH":8532,"BSTAR":0.00061811246,"MEAN_MOTION_DOT":8.268e-5,"MEAN_MOTION_DDOT":0}]
