STARLINK-5628           
1 55466U 23015T   26068.39732500 -.00000442  00000+0 -17660-4 0  9993
2 55466  43.0067 327.2640 0001418 267.1501  92.9179 15.02533041170715
QPS-SAR-8 (AMATERU-IV)  
1 60542U 24149CC  26068.70418071  .00008268  00000+0  61811-3 0  9990
2 60542  97.6699 148.7511 0003873  93.1500 267.0168 15.03026697 85328
